{
  "type": "FeatureCollection",
  "features": [
    {
      "type": "Feature",
      "properties": {
        "norad_id": 63772,
        "name": "BIOMASS",
        "group": "resource",
        "lat": -36.601108725897014,
        "lon": 177.67086528663566,
        "alt_km": 675.7024607302801,
        "timestamp": "2025-12-12T14:39:17.629704+00:00",
        "meta_object_name": "BIOMASS",
        "meta_object_id": "2025-090A",
        "meta_epoch": "2025-12-12T06:38:29.116032",
        "meta_mean_motion": 14.67535313,
        "meta_eccentricity": 0.00014804,
        "meta_inclination": 98.0704,
        "meta_ra_of_asc_node": 171.2929,
        "meta_arg_of_pericenter": 77.1218,
        "meta_mean_anomaly": 283.0152,
        "meta_ephemeris_type": 0,
        "meta_classification_type": "U",
        "meta_norad_cat_id": 63772,
        "meta_element_set_no": 999,
        "meta_rev_at_epoch": 3327,
        "meta_bstar": 0.00037322108,
        "meta_mean_motion_dot": 2.069e-05,
        "meta_mean_motion_ddot": 0,
        "tle_line1": "1 63772U 25090A   25346.27672588  .00002069  00000+0  37322-3 0  9992",
        "tle_line2": "2 63772  98.0704 171.2929 0001480  77.1218 283.0152 14.67535313 33279"
      },
      "geometry": {
        "type": "Point",
        "coordinates": [
          177.67086528663566,
          -36.601108725897014
        ]
      }
    },
    {
      "type": "Feature",
      "properties": {
        "norad_id": 64694,
        "name": "GOSAT-GW (IBUKI GW)",
        "group": "resource",
        "lat": 7.185444947388019,
        "lon": 103.14716606752172,
        "alt_km": 670.8826509741257,
        "timestamp": "2025-12-12T14:39:17.629727+00:00",
        "meta_object_name": "GOSAT-GW (IBUKI GW)",
        "meta_object_id": "2025-141A",
        "meta_epoch": "2025-12-12T07:19:31.904832",
        "meta_mean_motion": 14.67556077,
        "meta_eccentricity": 0.00014414,
        "meta_inclination": 98.0424,
        "meta_ra_of_asc_node": 281.826,
        "meta_arg_of_pericenter": 84.2127,
        "meta_mean_anomaly": 275.9242,
        "meta_ephemeris_type": 0,
        "meta_classification_type": "U",
        "meta_norad_cat_id": 64694,
        "meta_element_set_no": 999,
        "meta_rev_at_epoch": 2443,
        "meta_bstar": 0.00024426449,
        "meta_mean_motion_dot": 1.338e-05,
        "meta_mean_motion_ddot": 0,
        "tle_line1": "1 64694U 25141A   25346.30523038  .00001338  00000+0  24426-3 0  9991",
        "tle_line2": "2 64694  98.0424 281.8260 0001441  84.2127 275.9242 14.67556077 24431"
      },
      "geometry": {
        "type": "Point",
        "coordinates": [
          103.14716606752172,
          7.185444947388019
        ]
      }
    },
    {
      "type": "Feature",
      "properties": {
        "norad_id": 64876,
        "name": "IONOSFERA-M 3",
        "group": "resource",
        "lat": -16.41968855930259,
        "lon": 125.93093140585928,
        "alt_km": 826.4485762098329,
        "timestamp": "2025-12-12T14:39:17.629737+00:00",
        "meta_object_name": "IONOSFERA-M 3",
        "meta_object_id": "2025-155A",
        "meta_epoch": "2025-12-12T06:58:33.604608",
        "meta_mean_motion": 14.21440865,
        "meta_eccentricity": 0.00022416,
        "meta_inclination": 98.5782,
        "meta_ra_of_asc_node": 308.1695,
        "meta_arg_of_pericenter": 60.7624,
        "meta_mean_anomaly": 299.3777,
        "meta_ephemeris_type": 0,
        "meta_classification_type": "U",
        "meta_norad_cat_id": 64876,
        "meta_element_set_no": 999,
        "meta_rev_at_epoch": 1985,
        "meta_bstar": 9.0973395e-05,
        "meta_mean_motion_dot": 1.56e-06,
        "meta_mean_motion_ddot": 0,
        "tle_line1": "1 64876U 25155A   25346.29066672  .00000156  00000+0  90973-4 0  9990",
        "tle_line2": "2 64876  98.5782 308.1695 0002241  60.7624 299.3777 14.21440865 19850"
      },
      "geometry": {
        "type": "Point",
        "coordinates": [
          125.93093140585928,
          -16.41968855930259
        ]
      }
    },
    {
      "type": "Feature",
      "properties": {
        "norad_id": 64877,
        "name": "IONOSFERA-M 4",
        "group": "resource",
        "lat": 16.81428041879552,
        "lon": -54.21444189172437,
        "alt_km": 820.1842309305111,
        "timestamp": "2025-12-12T14:39:17.629746+00:00",
        "meta_object_name": "IONOSFERA-M 4",
        "meta_object_id": "2025-155B",
        "meta_epoch": "2025-12-12T07:49:03.340704",
        "meta_mean_motion": 14.21441997,
        "meta_eccentricity": 0.00015925,
        "meta_inclination": 98.5781,
        "meta_ra_of_asc_node": 308.1231,
        "meta_arg_of_pericenter": 63.9256,
        "meta_mean_anomaly": 296.2086,
        "meta_ephemeris_type": 0,
        "meta_classification_type": "U",
        "meta_norad_cat_id": 64877,
        "meta_element_set_no": 999,
        "meta_rev_at_epoch": 1985,
        "meta_bstar": 8.9787615e-05,
        "meta_mean_motion_dot": 1.54e-06,
        "meta_mean_motion_ddot": 0,
        "tle_line1": "1 64877U 25155B   25346.32573311  .00000154  00000+0  89788-4 0  9998",
        "tle_line2": "2 64877  98.5781 308.1231 0001592  63.9256 296.2086 14.21441997 19856"
      },
      "geometry": {
        "type": "Point",
        "coordinates": [
          -54.21444189172437,
          16.81428041879552
        ]
      }
    },
    {
      "type": "Feature",
      "properties": {
        "norad_id": 64899,
        "name": "MICROCARB",
        "group": "resource",
        "lat": 31.336261041685518,
        "lon": -113.12801194841403,
        "alt_km": 640.767911263757,
        "timestamp": "2025-12-12T14:39:17.629756+00:00",
        "meta_object_name": "MICROCARB",
        "meta_object_id": "2025-156A",
        "meta_epoch": "2025-12-12T04:11:46.217472",
        "meta_mean_motion": 14.7205564,
        "meta_eccentricity": 0.00171054,
        "meta_inclination": 98.0026,
        "meta_ra_of_asc_node": 61.5294,
        "meta_arg_of_pericenter": 146.4613,
        "meta_mean_anomaly": 213.7681,
        "meta_ephemeris_type": 0,
        "meta_classification_type": "U",
        "meta_norad_cat_id": 64899,
        "meta_element_set_no": 999,
        "meta_rev_at_epoch": 2045,
        "meta_bstar": 0.0001904386,
        "meta_mean_motion_dot": 1.15e-05,
        "meta_mean_motion_ddot": 0,
        "tle_line1": "1 64899U 25156A   25346.17484048  .00001150  00000+0  19044-3 0  9998",
        "tle_line2": "2 64899  98.0026  61.5294 0017105 146.4613 213.7681 14.72055640 20452"
      },
      "geometry": {
        "type": "Point",
        "coordinates": [
          -113.12801194841403,
          31.336261041685518
        ]
      }
    },
    {
      "type": "Feature",
      "properties": {
        "norad_id": 64900,
        "name": "CO3D 3",
        "group": "resource",
        "lat": 12.409596317742244,
        "lon": -115.36890740885232,
        "alt_km": 503.0145814798825,
        "timestamp": "2025-12-12T14:39:17.629765+00:00",
        "meta_object_name": "CO3D 3",
        "meta_object_id": "2025-156B",
        "meta_epoch": "2025-12-12T04:26:31.994592",
        "meta_mean_motion": 15.20160723,
        "meta_eccentricity": 0.00054722,
        "meta_inclination": 97.4437,
        "meta_ra_of_asc_node": 62.5626,
        "meta_arg_of_pericenter": 185.32,
        "meta_mean_anomaly": 174.7978,
        "meta_ephemeris_type": 0,
        "meta_classification_type": "U",
        "meta_norad_cat_id": 64900,
        "meta_element_set_no": 999,
        "meta_rev_at_epoch": 2112,
        "meta_bstar": 0.0011050076,
        "meta_mean_motion_dot": 0.0002391,
        "meta_mean_motion_ddot": 0,
        "tle_line1": "1 64900U 25156B   25346.18509253  .00023910  00000+0  11050-2 0  9994",
        "tle_line2": "2 64900  97.4437  62.5626 0005472 185.3200 174.7978 15.20160723 21125"
      },
      "geometry": {
        "type": "Point",
        "coordinates": [
          -115.36890740885232,
          12.409596317742244
        ]
      }
    },
    {
      "type": "Feature",
      "properties": {
        "norad_id": 64901,
        "name": "CO3D 4",
        "group": "resource",
        "lat": 13.24935730218311,
        "lon": -115.25890664275207,
        "alt_km": 505.799252043631,
        "timestamp": "2025-12-12T14:39:17.629775+00:00",
        "meta_object_name": "CO3D 4",
        "meta_object_id": "2025-156C",
        "meta_epoch": "2025-12-09T21:09:17.831232",
        "meta_mean_motion": 15.20201124,
        "meta_eccentricity": 0.0001172,
        "meta_inclination": 97.4339,
        "meta_ra_of_asc_node": 60.2895,
        "meta_arg_of_pericenter": 212.2858,
        "meta_mean_anomaly": 147.8306,
        "meta_ephemeris_type": 0,
        "meta_classification_type": "U",
        "meta_norad_cat_id": 64901,
        "meta_element_set_no": 999,
        "meta_rev_at_epoch": 2077,
        "meta_bstar": -2.5806744e-05,
        "meta_mean_motion_dot": -6.26e-06,
        "meta_mean_motion_ddot": 0,
        "tle_line1": "1 64901U 25156C   25343.88145638 -.00000626  00000+0 -25807-4 0  9990",
        "tle_line2": "2 64901  97.4339  60.2895 0001172 212.2858 147.8306 15.20201124 20779"
      },
      "geometry": {
        "type": "Point",
        "coordinates": [
          -115.25890664275207,
          13.24935730218311
        ]
      }
    }
  ]
}